{"type":"FeatureCollection","features":[{"type":"Feature","properties":{},"geometry":{"type":"MultiLineString","coordinates":[[[104.426,10.411],[104.467,10.422],[104.514,10.463],[104.564,10.516],[104.69,10.523],[104.815,10.521],[104.851,10.534],[104.901,10.59],[104.984,10.662],[105.046,10.702],[105.061,10.734],[105.036,10.809],[105.022,10.887],[105.046,10.911],[105.16,10.898],[105.284,10.861],[105.315,10.845],[105.386,10.94],[105.406,10.952],[105.453,10.951],[105.577,10.969],[105.698,10.994],[105.755,10.99],[105.811,10.926],[105.853,10.864],[105.875,10.859],[105.938,10.885],[105.99,10.852],[106.099,10.797],[106.164,10.795],[106.132,10.922],[106.168,11.012],[106.161,11.037],[106.099,11.079],[105.892,11.245],[105.856,11.294],[105.861,11.372],[105.854,11.487],[105.835,11.559],[105.839,11.601],[105.851,11.635],[105.89,11.648],[105.927,11.653],[105.956,11.682],[106.006,11.758],[106.103,11.751],[106.239,11.708],[106.34,11.682],[106.399,11.687],[106.413,11.698],[106.411,11.738],[106.418,11.912],[106.414,11.948],[106.5,11.966],[106.631,11.969],[106.7,11.979],[106.765,12.052],[106.931,12.078],[107.051,12.176],[107.159,12.277],[107.212,12.304],[107.28,12.322],[107.33,12.319],[107.393,12.26],[107.446,12.296],[107.506,12.365],[107.538,12.432],[107.555,12.54],[107.544,12.706],[107.512,12.836],[107.482,12.933],[107.475,13.03],[107.546,13.225],[107.605,13.438],[107.594,13.522],[107.529,13.654],[107.462,13.816],[107.389,13.993],[107.362,14.019],[107.343,14.069],[107.331,14.127],[107.36,14.308],[107.364,14.369],[107.448,14.451],[107.493,14.546],[107.535,14.65],[107.519,14.705]],[[101.139,21.567],[101.197,21.522],[101.175,21.408],[101.206,21.383],[101.22,21.342],[101.212,21.278],[101.224,21.224],[101.248,21.197],[101.281,21.184],[101.444,21.231],[101.542,21.234],[101.584,21.204],[101.622,21.184],[101.669,21.17],[101.705,21.15],[101.728,21.156],[101.783,21.204],[101.801,21.213],[101.802,21.236],[101.763,21.279],[101.723,21.315],[101.724,21.395],[101.743,21.534],[101.747,21.606],[101.744,21.778],[101.737,21.827],[101.7,21.882],[101.603,21.99],[101.576,22.055],[101.56,22.121],[101.562,22.162],[101.537,22.21],[101.524,22.254],[101.568,22.276],[101.62,22.327],[101.646,22.405],[101.671,22.462],[101.708,22.487],[101.739,22.495],[101.76,22.49],[101.842,22.388],[101.945,22.439],[102.024,22.439],[102.091,22.412],[102.127,22.379]],[[102.934,11.707],[102.918,11.732],[102.737,12.09],[102.706,12.256],[102.737,12.383],[102.756,12.426],[102.703,12.494],[102.63,12.57],[102.5,12.67],[102.491,12.828],[102.462,13.015],[102.423,13.078],[102.363,13.193],[102.331,13.288],[102.32,13.54],[102.336,13.56],[102.428,13.568],[102.547,13.586],[102.566,13.626],[102.545,13.66],[102.62,13.717],[102.729,13.842],[102.813,13.972],[102.873,14.055],[102.909,14.137],[103.031,14.253],[103.199,14.333],[103.314,14.351],[103.432,14.379],[103.546,14.417],[103.6,14.421],[103.742,14.374],[103.818,14.362],[103.899,14.363],[103.982,14.358],[104.054,14.363],[104.228,14.396],[104.412,14.37],[104.576,14.39],[104.779,14.428],[104.879,14.404],[104.97,14.366],[104.982,14.289],[105.003,14.254],[105.034,14.227],[105.074,14.227],[105.126,14.281],[105.169,14.336],[105.183,14.346]],[[100.122,20.317],[100.004,20.38],[99.954,20.415],[99.89,20.424],[99.825,20.384],[99.773,20.341],[99.72,20.325],[99.639,20.32],[99.532,20.343],[99.459,20.363],[99.448,20.352],[99.487,20.261],[99.502,20.188],[99.486,20.15],[99.452,20.118],[99.399,20.093],[99.338,20.079],[99.284,20.08],[99.197,20.115],[99.131,20.117],[99.074,20.099],[99.04,20.074],[99.021,20.042],[98.987,19.861],[98.958,19.805],[98.917,19.773],[98.876,19.77],[98.82,19.778],[98.761,19.771],[98.494,19.701],[98.455,19.694],[98.371,19.689],[98.294,19.687],[98.239,19.691],[98.111,19.762],[98.049,19.77],[98.015,19.749],[97.991,19.654],[97.916,19.593],[97.817,19.46],[97.793,19.266],[97.804,19.13],[97.714,18.996],[97.706,18.932],[97.754,18.621],[97.746,18.588],[97.728,18.572],[97.672,18.561],[97.577,18.529],[97.515,18.498],[97.485,18.494],[97.397,18.518],[97.374,18.518],[97.381,18.494],[97.451,18.36],[97.524,18.296],[97.599,18.303],[97.632,18.29],[97.622,18.258],[97.652,18.174],[97.72,18.037],[97.74,17.935],[97.699,17.834],[97.706,17.797],[97.729,17.776],[97.793,17.681],[97.929,17.533],[98.063,17.373],[98.175,17.24],[98.257,17.148],[98.439,16.976],[98.471,16.895],[98.478,16.732],[98.523,16.638],[98.565,16.571],[98.594,16.515],[98.661,16.33],[98.689,16.305],[98.835,16.418],[98.869,16.394],[98.888,16.352],[98.889,16.298],[98.866,16.237],[98.818,16.181],[98.592,16.051],[98.574,15.939],[98.558,15.769],[98.554,15.56],[98.565,15.404],[98.557,15.368],[98.537,15.351],[98.452,15.357],[98.329,15.279],[98.286,15.272],[98.232,15.241],[98.191,15.204],[98.178,15.147],[98.202,14.976],[98.246,14.815],[98.332,14.696],[98.4,14.603],[98.495,14.473],[98.57,14.36],[98.721,14.236],[98.934,14.05],[99.015,13.947],[99.086,13.823],[99.137,13.717],[99.156,13.576],[99.172,13.497],[99.176,13.233],[99.137,13.173],[99.107,13.104],[99.124,13.031],[99.174,12.961],[99.174,12.882],[99.22,12.74],[99.297,12.653],[99.372,12.594],[99.405,12.548],[99.394,12.474],[99.416,12.395],[99.432,12.309],[99.463,12.19],[99.523,12.09],[99.615,11.781],[99.613,11.75],[99.573,11.687],[99.515,11.631],[99.478,11.612],[99.443,11.554],[99.359,11.389],[99.19,11.105],[99.025,10.92],[98.887,10.788],[98.787,10.708],[98.757,10.661],[98.757,10.624],[98.775,10.557],[98.768,10.431],[98.747,10.351],[98.718,10.266],[98.703,10.19]],[[103.091,18.138],[103.092,18.141],[103.09,18.137],[103.091,18.138]],[[103.091,18.138],[103.149,18.222],[103.2,18.259],[103.263,18.278],[103.28,18.305],[103.249,18.339],[103.252,18.373],[103.288,18.408],[103.367,18.423],[103.488,18.418],[103.63,18.383],[103.792,18.316],[103.899,18.295],[103.95,18.319],[104.049,18.217],[104.196,17.988],[104.323,17.816],[104.428,17.699],[104.539,17.609],[104.656,17.547],[104.74,17.462],[104.816,17.3],[104.759,17.077],[104.744,16.884],[104.751,16.648],[104.819,16.466],[104.95,16.34],[105.026,16.238],[105.047,16.16],[105.149,16.094],[105.331,16.038],[105.406,15.987],[105.376,15.942],[105.373,15.89],[105.399,15.83],[105.462,15.78],[105.562,15.741],[105.622,15.7],[105.641,15.657],[105.639,15.586],[105.616,15.488],[105.574,15.413],[105.513,15.361],[105.506,15.32],[105.49,15.257],[105.49,15.128],[105.533,15.042],[105.547,14.932],[105.523,14.843],[105.5,14.661],[105.497,14.591],[105.476,14.53],[105.423,14.472],[105.342,14.417],[105.244,14.368],[105.183,14.346]],[[100.122,20.317],[100.115,20.258],[100.14,20.245],[100.174,20.273],[100.218,20.34],[100.266,20.377],[100.318,20.386],[100.373,20.34],[100.432,20.241],[100.492,20.184],[100.519,20.178],[100.54,20.132],[100.543,20.089],[100.515,19.996],[100.466,19.889],[100.398,19.756],[100.42,19.644],[100.514,19.553],[100.625,19.5],[100.744,19.515],[100.807,19.542],[100.858,19.585],[100.906,19.605],[100.966,19.611],[101.155,19.579],[101.212,19.548],[101.221,19.487],[101.198,19.328],[101.227,19.212],[101.28,19.089],[101.286,18.977],[101.221,18.793],[101.166,18.618],[101.106,18.534],[101.06,18.479],[101.047,18.442],[101.051,18.407],[101.093,18.355],[101.138,18.287],[101.149,18.222],[101.144,18.143],[101.113,18.034],[100.999,17.797],[100.908,17.584],[100.956,17.541],[101.046,17.51],[101.105,17.48],[101.168,17.499],[101.3,17.625],[101.414,17.719],[101.555,17.812],[101.564,17.821],[101.687,17.889],[101.744,17.953],[101.775,18.033],[101.819,18.065],[101.875,18.046],[101.947,18.081],[102.035,18.17],[102.101,18.211],[102.148,18.204],[102.232,18.149],[102.352,18.046],[102.459,17.985],[102.553,17.965],[102.598,17.927],[102.596,17.87],[102.617,17.833],[102.661,17.818],[102.68,17.824],[102.675,17.852],[102.718,17.892],[102.807,17.946],[102.899,17.977],[102.991,17.986],[103.051,18.029],[103.091,18.138]],[[101.139,21.567],[101.08,21.469],[100.928,21.366],[100.82,21.314],[100.757,21.313],[100.703,21.251],[100.659,21.13],[100.614,21.059],[100.567,21.038],[100.536,20.992],[100.522,20.922],[100.549,20.884],[100.618,20.879],[100.623,20.86],[100.565,20.825],[100.493,20.813],[100.407,20.823],[100.326,20.796],[100.249,20.73],[100.184,20.589],[100.13,20.372],[100.122,20.317]],[[98.655,25.918],[98.656,25.864],[98.625,25.827],[98.558,25.823],[98.466,25.789],[98.402,25.678],[98.334,25.587],[98.297,25.569],[98.173,25.595],[98.143,25.571],[98.1,25.416],[98.064,25.349],[98.011,25.293],[97.962,25.259],[97.918,25.236],[97.819,25.252],[97.767,25.158],[97.715,25.034],[97.711,24.97],[97.738,24.87],[97.724,24.842],[97.671,24.82],[97.583,24.775],[97.529,24.631],[97.531,24.492],[97.563,24.444],[97.624,24.423],[97.667,24.38],[97.671,24.313],[97.708,24.229],[97.691,24.131],[97.568,23.988],[97.565,23.911],[97.63,23.887],[97.686,23.898],[97.756,23.932],[97.838,23.986],[98.017,24.065],[98.213,24.111],[98.367,24.119],[98.499,24.116],[98.564,24.099],[98.583,24.07],[98.764,24.116],[98.802,24.119],[98.835,24.121],[98.834,24.091],[98.702,23.964],[98.677,23.905],[98.681,23.842],[98.735,23.783],[98.788,23.738],[98.832,23.624],[98.798,23.52],[98.82,23.483],[98.859,23.44],[98.883,23.38],[98.886,23.307],[98.864,23.191],[99.055,23.131],[99.22,23.103],[99.341,23.096],[99.418,23.069],[99.465,23.046],[99.497,23.005],[99.507,22.959],[99.467,22.927],[99.385,22.825],[99.338,22.689],[99.343,22.587],[99.338,22.498],[99.243,22.37],[99.205,22.283],[99.172,22.192],[99.173,22.153],[99.193,22.126],[99.233,22.11],[99.303,22.101],[99.389,22.111],[99.593,22.089],[99.825,22.05],[99.918,22.028],[99.948,21.988],[99.94,21.902],[99.926,21.821],[99.941,21.759],[99.978,21.702],[100.041,21.683],[100.096,21.661],[100.106,21.617],[100.089,21.558],[100.117,21.511],[100.148,21.481],[100.215,21.463],[100.351,21.501],[100.446,21.484],[100.531,21.458],[100.605,21.472],[100.677,21.505],[100.835,21.655],[101.019,21.736],[101.08,21.756],[101.121,21.746],[101.131,21.736],[101.128,21.705],[101.147,21.582],[101.139,21.567]],[[102.127,22.379],[102.183,22.284],[102.301,22.178],[102.443,22.027],[102.487,21.958],[102.583,21.904],[102.61,21.852],[102.631,21.771],[102.641,21.711],[102.662,21.676],[102.695,21.662],[102.739,21.678],[102.771,21.71],[102.798,21.798],[102.816,21.807],[102.845,21.735],[102.876,21.722],[102.918,21.713],[102.95,21.681],[102.959,21.626],[102.949,21.57],[102.91,21.506],[102.887,21.44],[102.872,21.338],[102.851,21.266],[102.884,21.203],[103.104,20.892],[103.211,20.841],[103.464,20.78],[103.555,20.738],[103.635,20.697],[103.714,20.717],[103.79,20.81],[103.882,20.861],[104.052,20.941],[104.101,20.945],[104.195,20.914],[104.35,20.821],[104.461,20.734],[104.53,20.688],[104.583,20.647],[104.575,20.6],[104.533,20.555],[104.479,20.53],[104.408,20.486],[104.368,20.441],[104.392,20.425],[104.496,20.414],[104.619,20.374],[104.656,20.329],[104.662,20.289],[104.677,20.225],[104.699,20.205],[104.813,20.217],[104.848,20.202],[104.889,20.169],[104.929,20.083],[104.928,20.018],[104.846,19.947],[104.815,19.904],[104.802,19.836],[104.743,19.755],[104.588,19.619],[104.546,19.611],[104.26,19.686],[104.127,19.681],[104.063,19.678],[104.032,19.675],[104.013,19.646],[104.052,19.564],[104.063,19.483],[104.028,19.42],[103.932,19.366],[103.896,19.34],[103.892,19.305],[103.918,19.269],[104.006,19.231],[104.109,19.196],[104.446,18.984],[104.518,18.934],[104.613,18.861],[104.717,18.803],[104.993,18.728],[105.115,18.679],[105.146,18.651],[105.145,18.617],[105.114,18.573],[105.087,18.496],[105.086,18.45],[105.115,18.405],[105.163,18.339],[105.273,18.235],[105.333,18.19],[105.4,18.179],[105.458,18.154],[105.519,18.077],[105.589,17.984],[105.598,17.918],[105.627,17.834],[105.691,17.738],[105.78,17.644],[105.903,17.529],[105.974,17.447],[106.006,17.415],[106.27,17.217],[106.333,17.144],[106.426,17.003],[106.465,16.982],[106.502,16.954],[106.526,16.877],[106.534,16.821],[106.546,16.651],[106.594,16.6],[106.638,16.538],[106.656,16.493],[106.696,16.459],[106.74,16.453],[106.792,16.49],[106.832,16.526],[106.851,16.516],[106.893,16.397],[106.931,16.353],[107.002,16.312],[107.07,16.28],[107.217,16.136],[107.296,16.084],[107.35,16.067],[107.396,16.043],[107.41,15.998],[107.392,15.952],[107.361,15.922],[107.189,15.839],[107.166,15.802],[107.19,15.747],[107.233,15.678],[107.279,15.619],[107.339,15.56],[107.46,15.466],[107.564,15.392],[107.622,15.31],[107.653,15.255],[107.634,15.19],[107.59,15.118],[107.555,15.057],[107.496,15.021],[107.48,14.98],[107.505,14.916],[107.524,14.872],[107.514,14.817],[107.519,14.705]],[[107.519,14.705],[107.465,14.665],[107.415,14.563],[107.38,14.555],[107.293,14.592],[107.262,14.572],[107.207,14.498],[107.109,14.417],[107.062,14.416],[107.03,14.426],[106.992,14.391],[106.938,14.327],[106.913,14.329],[106.82,14.315],[106.783,14.335],[106.738,14.388],[106.665,14.441],[106.599,14.479],[106.564,14.505],[106.531,14.549],[106.501,14.578],[106.447,14.515],[106.355,14.455],[106.268,14.466],[106.225,14.476],[106.191,14.388],[106.165,14.372],[106.008,14.357],[105.979,14.343],[106.004,14.263],[106.097,14.127],[106.125,14.049],[106.067,13.921],[105.904,13.925],[105.832,13.977],[105.764,14.049],[105.74,14.085],[105.532,14.156],[105.393,14.107],[105.35,14.11],[105.285,14.161],[105.246,14.201],[105.207,14.259],[105.186,14.319],[105.183,14.346]],[[107.973,21.508],[107.908,21.56],[107.802,21.645],[107.759,21.655],[107.641,21.614],[107.471,21.598],[107.433,21.642],[107.351,21.609],[107.272,21.711],[107.179,21.717],[107.062,21.794],[107.02,21.835],[107.006,21.893],[106.971,21.924],[106.925,21.92],[106.874,21.951],[106.794,21.982],[106.73,22],[106.698,21.986],[106.664,21.979],[106.658,22.018],[106.66,22.136],[106.654,22.241],[106.637,22.289],[106.593,22.325],[106.554,22.342],[106.536,22.395],[106.55,22.501],[106.582,22.573],[106.633,22.586],[106.702,22.638],[106.736,22.711],[106.78,22.779],[106.624,22.874],[106.542,22.908],[106.451,22.894],[106.338,22.863],[106.279,22.857],[106.249,22.869],[106.184,22.955],[106.148,22.97],[106.068,22.976],[106.001,22.975],[105.962,22.937],[105.903,22.925],[105.843,22.923],[105.782,22.969],[105.691,23.03],[105.548,23.073],[105.531,23.122],[105.495,23.181],[105.44,23.235],[105.35,23.308],[105.275,23.345],[105.239,23.322],[105.189,23.281],[104.996,23.194],[104.91,23.161],[104.865,23.136],[104.827,23.1],[104.815,23.011],[104.796,22.911],[104.74,22.86],[104.687,22.822],[104.632,22.818],[104.578,22.82],[104.527,22.804],[104.372,22.704],[104.298,22.712],[104.238,22.769],[104.212,22.809],[104.143,22.8],[104.054,22.752],[104.013,22.666],[103.991,22.586],[103.971,22.551],[103.941,22.54],[103.915,22.538],[103.637,22.77],[103.62,22.782],[103.571,22.734],[103.525,22.612],[103.493,22.588],[103.471,22.597],[103.356,22.755],[103.327,22.77],[103.301,22.764],[103.266,22.714],[103.193,22.639],[103.138,22.593],[103.136,22.542],[103.076,22.498],[103.005,22.453],[102.982,22.448],[102.935,22.466],[102.874,22.525],[102.83,22.587],[102.721,22.648],[102.599,22.7],[102.517,22.741],[102.471,22.751],[102.428,22.733],[102.406,22.708],[102.376,22.647],[102.302,22.546],[102.237,22.466],[102.176,22.415],[102.127,22.379]]]}}]}